ONEWEB-0709             
1 55172U 23004AJ  25145.38786842  .00000505  00000+0  13877-2 0  9999
2 55172  87.8828  98.3936 0002529 102.5109 257.6302 13.11418104115047
ONEWEB-0710             
1 55173U 23004AK  25145.54963769  .00000016  00000+0  73312-5 0  9993
2 55173  87.9062  83.0657 0002155  78.5803 281.5571 13.17648235116533
ONEWEB-0711             
1 55174U 23004AL  25145.58791512 -.00000544  00000+0 -15718-2 0  9994
2 55174  87.8826  98.3211 0002687  69.3935 290.7480 13.11418155115035
ONEWEB-0713             
1 55175U 23004AM  25145.60658203 -.00000016  00000+0 -79838-4 0  9996
2 55175  87.8828  98.3254 0002254  76.4689 283.6690 13.11418803115023
ONEWEB-0715             
1 55176U 23004AN  25145.60147462 -.00000485  00000+0 -14032-2 0  9990
2 55176  87.8829  98.3268 0002354  88.1762 271.9636 13.11418383115060
ONEWEB-0716             
1 55177U 23004AP  25145.54289316  .00000018  00000+0  13796-4 0  9997
2 55177  87.9064  83.0660 0001805  79.9819 280.1516 13.17649452116532
ONEWEB-0717             
1 55178U 23004AQ  25145.52601075  .00000085  00000+0  18499-3 0  9994
2 55178  87.9064  83.0287 0002766  72.8342 287.3092 13.17648504116588
ONEWEB-0719             
1 55179U 23004AR  25145.53612869  .00000053  00000+0  10268-3 0  9990
2 55179  87.9061  83.0108 0001883  75.9213 284.2128 13.17648719116537
ONEWEB-0530             
1 55796U 23029A   25145.13994551  .00000135  00000+0  29920-3 0  9995
2 55796  87.9271 351.7612 0002059  72.1703 287.9655 13.20772418109927
ONEWEB-0534             
1 55797U 23029B   25145.27881389  .00000064  00000+0  12555-3 0  9992
2 55797  87.9271 351.7412 0001693  86.4368 273.6959 13.20770417109942
ONEWEB-0556             
1 55798U 23029C   25145.28511375  .00000113  00000+0  24592-3 0  9998
2 55798  87.9271 351.7322 0001428  62.0780 298.0497 13.20773138109948
ONEWEB-0562             
1 55799U 23029D   25145.49977628 -.00000002  00000+0 -37109-4 0  9997
2 55799  87.9271 351.6822 0002089  59.0892 301.0446 13.20771059109979
ONEWEB-0563             
1 55800U 23029E   25145.26618031  .00000016  00000+0  65494-5 0  9997
2 55800  87.9270 351.7431 0001547  91.4737 268.6573 13.20770342109933
ONEWEB-0564             
1 55801U 23029F   25145.56289874  .00000013  00000+0 -25074-7 0  9990
2 55801  87.9271 351.6731 0001976  75.7263 284.4090 13.20770846109986
ONEWEB-0638             
1 55802U 23029G   25145.11625472 -.00000051  00000+0 -17220-3 0  9993
2 55802  87.9053   6.9674 0001539  67.3416 292.7877 13.14503489108415
ONEWEB-0639             
1 55803U 23029H   25145.38064346  .00000085  00000+0  18124-3 0  9999
2 55803  87.9243  22.0778 0001340 122.5065 237.6197 13.19724478107752
ONEWEB-0640             
1 55804U 23029J   25145.35412216  .00000053  00000+0  10982-3 0  9999
2 55804  87.9051   6.9087 0001105  71.0848 289.0401 13.14503557108466
ONEWEB-0641             
1 55805U 23029K   25145.60336484  .00000109  00000+0  23977-3 0  9990
2 55805  87.9240  22.0061 0001695  88.2765 271.8562 13.19725893107796
ONEWEB-0642             
1 55806U 23029L   25145.59862893  .00000081  00000+0  17053-3 0  9994
2 55806  87.9243  22.0433 0001683 113.5015 246.6295 13.19724922107784
ONEWEB-0643             
1 55807U 23029M   25145.32399053 -.00000120  00000+0 -35806-3 0  9991
2 55807  87.9055   6.8963 0002011 107.1004 253.0346 13.14503265108439
ONEWEB-0644             
1 55808U 23029N   25145.36643436  .00000104  00000+0  22753-3 0  9990
2 55808  87.9248  22.0925 0001683  99.4896 260.6427 13.19725340107751
ONEWEB-0645             
1 55809U 23029P   25145.36247000  .00000097  00000+0  20955-3 0  9991
2 55809  87.9246  22.0898 0001459  83.4715 276.6584 13.19727936107757
ONEWEB-0646             
1 55810U 23029Q   25145.39248968  .00000071  00000+0  14429-3 0  9991
2 55810  87.9242  22.0776 0001827  90.7693 269.3649 13.19724232107741
ONEWEB-0648             
1 55811U 23029R   25145.59674909  .00000250  00000+0  64024-3 0  9997
2 55811  87.9053   6.8176 0001154 115.2250 244.9000 13.14502759108475
ONEWEB-0649             
1 55812U 23029S   25145.35537868  .00000110  00000+0  24182-3 0  9990
2 55812  87.9241  22.0747 0001431  94.5968 265.5328 13.19725266107771
ONEWEB-0650             
1 55813U 23029T   25145.35064008  .00000050  00000+0  93393-4 0  9996
2 55813  87.9243  22.0846 0001742  88.3709 271.7624 13.19725917107741
ONEWEB-0652             
1 55814U 23029U   25145.34934939 -.00000006  00000+0 -49327-4 0  9996
2 55814  87.9054   6.8766 0001889  81.4416 278.6928 13.14504662108419
ONEWEB-0653             
1 55815U 23029V   25145.10515214 -.00000171  00000+0 -49528-3 0  9997
2 55815  87.9056   6.9135 0001734  76.6244 283.5079 13.14503778108416
ONEWEB-0654             
1 55816U 23029W   25145.32874669 -.00000112  00000+0 -33571-3 0  9990
2 55816  87.9054   6.8703 0002016  73.9538 286.1814 13.14503865108463
ONEWEB-0656             
1 55817U 23029X   25145.32931053 -.00000040  00000+0 -13032-3 0  9992
2 55817  87.9269 351.6601 0002118  75.4663 284.6706 13.20769102109952
ONEWEB-0657             
1 55818U 23029Y   25145.19426614  .00000022  00000+0  22412-4 0  9991
2 55818  87.9244  22.1204 0002602  84.9098 275.2332 13.19725223107739
ONEWEB-0658             
1 55819U 23029Z   25145.41698112  .00000007  00000+0 -15025-4 0  9997
2 55819  87.9241  22.0099 0001710  98.5975 261.5351 13.19725236107779
ONEWEB-0660             
1 55820U 23029AA  25145.53490524  .00000172  00000+0  42927-3 0  9991
2 55820  87.9054   6.8010 0001397  84.9435 275.1854 13.14502210108474
ONEWEB-0661             
1 55821U 23029AB  25145.34143860 -.00000139  00000+0 -40838-3 0  9993
2 55821  87.9054   6.9100 0001402  81.0261 279.1027 13.14505238108433
ONEWEB-0662             
1 55822U 23029AC  25145.37632179  .00000255  00000+0  65409-3 0  9991
2 55822  87.9056   6.9100 0001428  88.7913 271.3380 13.14502517108480
ONEWEB-0663             
1 55823U 23029AD  25145.53880643  .00000031  00000+0  44187-4 0  9994
2 55823  87.9272 351.6740 0001442  97.3503 262.7794 13.20837375109976
ONEWEB-0664             
1 55824U 23029AE  25145.54397312  .00000045  00000+0  78536-4 0  9992
2 55824  87.9272 351.6939 0001631  74.1974 285.9339 13.20771751109979
ONEWEB-0665             
1 55825U 23029AF  25145.33826193 -.00000168  00000+0 -48855-3 0  9992
2 55825  87.9054   6.8850 0001548  88.2158 271.9149 13.14503272108456
ONEWEB-0666             
1 55826U 23029AG  25145.53766112  .00000019  00000+0  14578-4 0  9998
2 55826  87.9270 351.6840 0002148  81.0611 279.0766 13.20771277109981
ONEWEB-0667             
1 55827U 23029AH  25145.30406884  .00000087  00000+0  18172-3 0  9999
2 55827  87.9270 351.6624 0001592  85.6717 274.4599 13.20771018109943
ONEWEB-0669             
1 55828U 23029AJ  25145.52660479  .00000081  00000+0  16833-3 0  9992
2 55828  87.9269 351.6539 0002131  67.6042 292.5317 13.20770069109975
ONEWEB-0670             
1 55829U 23029AK  25145.31606331  .00000040  00000+0  73246-4 0  9994
2 55829  87.9058   6.9066 0001431  74.9310 285.1978 13.14503559108474
ONEWEB-0671             
1 55830U 23029AL  25145.41224154  .00000030  00000+0  43198-4 0  9998
2 55830  87.9242  22.0706 0001600  79.7437 280.3876 13.19724711107756
ONEWEB-0672             
1 55831U 23029AM  25145.52186409  .00000084  00000+0  17545-3 0  9996
2 55831  87.9269 351.6404 0002123  83.7295 276.4080 13.20771467109971
ONEWEB-0673             
1 55832U 23029AN  25145.38855178  .00000079  00000+0  16525-3 0  9998
2 55832  87.9241  22.0390 0001741  89.8279 270.3054 13.19724517107759
ONEWEB-0674             
1 55833U 23029AP  25145.36046669  .00000207  00000+0  52272-3 0  9996
2 55833  87.9051   6.8859 0001408  70.3767 289.7515 13.14503200108460
ONEWEB-0675             
1 55834U 23029AQ  25145.40434405  .00000080  00000+0  16673-3 0  9995
2 55834  87.9244  22.0831 0002125  87.5129 272.6247 13.19724812107779
ONEWEB-0720             
1 55835U 23029AR  25145.39644549  .00000007  00000+0 -15168-4 0  9995
2 55835  87.9244  22.0813 0001491  92.8476 267.2827 13.19723880107698
ONEWEB-0537             
1 56046U 23043A   25145.38212012  .00000002  00000+0 -29307-4 0  9996
2 56046  87.9028 306.0549 0002052  95.2819 264.8546 13.16594554107935
ONEWEB-0538             
1 56047U 23043B   25145.37579290  .00000144  00000+0  34266-3 0  9995
2 56047  87.9020 306.0772 0001989 103.7481 256.3871 13.16594196107944
ONEWEB-0546             
1 56048U 23043C   25145.36312103  .00000106  00000+0  24314-3 0  9994
2 56048  87.9030 306.0513 0002483  88.0952 272.0464 13.16594810107932
ONEWEB-0547             
1 56049U 23043D   25145.45676018  .00000050  00000+0  90306-4 0  9996
2 56049  87.9232 321.3077 0001840  99.3538 260.7804 13.21824982107005
ONEWEB-0548             
1 56050U 23043E   25145.38843519  .00000002  00000+0 -28272-4 0  9993
2 56050  87.9021 306.0845 0001436  81.6714 278.4579 13.16594409107936
ONEWEB-0549             
1 56051U 23043F   25145.44808288  .00000120  00000+0  25815-3 0  9994
2 56051  87.9245 321.3170 0001868 103.5781 256.5561 13.21824661107001
ONEWEB-0550             
1 56052U 23043G   25145.43547386  .00000062  00000+0  11754-3 0  9995
2 56052  87.9241 321.3149 0001787  87.1753 272.9585 13.21824361107005
ONEWEB-0551             
1 56053U 23043H   25145.49101842 -.00000335  00000+0 -92342-3 0  9992
2 56053  87.9045 336.5159 0001687  97.5868 262.5454 13.15547862105423
ONEWEB-0552             
1 56054U 23043J   25145.42917832  .00000088  00000+0  18177-3 0  9997
2 56054  87.9241 321.3251 0001564  98.3369 261.7943 13.21826834107002
ONEWEB-0553             
1 56055U 23043K   25145.44545465  .00000084  00000+0  18687-3 0  9991
2 56055  87.9021 306.0611 0002076  86.7622 273.3746 13.16594279107954
ONEWEB-0554             
1 56056U 23043L   25145.35677348  .00000090  00000+0  20144-3 0  9996
2 56056  87.9016 306.1078 0001629  87.7576 272.3742 13.16594286107929
